{
    "links": {
        "self": "http://www.neowsapp.com/rest/v1/neo/3578918?api_key=iIulBulltgU6a56xZRHN4H3l9WmuAYTsLGpBGhQ2"
    },
    "id": "3578918",
    "neo_reference_id": "3578918",
    "name": "(2011 SN25)",
    "designation": "2011 SN25",
    "nasa_jpl_url": "http://ssd.jpl.nasa.gov/sbdb.cgi?sstr=3578918",
    "absolute_magnitude_h": 26.4,
    "estimated_diameter": {
        "kilometers": {
            "estimated_diameter_min": 0.0139493823,
            "estimated_diameter_max": 0.0311917671
        },
        "meters": {
            "estimated_diameter_min": 13.9493822934,
            "estimated_diameter_max": 31.1917670523
        },
        "miles": {
            "estimated_diameter_min": 0.0086677416,
            "estimated_diameter_max": 0.0193816595
        },
        "feet": {
            "estimated_diameter_min": 45.7656914036,
            "estimated_diameter_max": 102.3351970157
        }
    },
    "is_potentially_hazardous_asteroid": false,
    "close_approach_data": [
        {
            "close_approach_date": "2011-09-30",
            "close_approach_date_full": "2011-Sep-30 15:42",
            "epoch_date_close_approach": 1317397320000,
            "relative_velocity": {
                "kilometers_per_second": "9.1169658769",
                "kilometers_per_hour": "32821.0771567807",
                "miles_per_hour": "20393.7409700007"
            },
            "miss_distance": {
                "astronomical": "0.0338846269",
                "lunar": "13.1811198641",
                "kilometers": "5069068.009984703",
                "miles": "3149772.8044987814"
            },
            "orbiting_body": "Earth"
        }
    ],
    "orbital_data": {
        "orbit_id": "5",
        "orbit_determination_date": "2017-04-06 08:52:46",
        "first_observation_date": "2011-09-20",
        "last_observation_date": "2011-09-26",
        "data_arc_in_days": 6,
        "observations_used": 13,
        "orbit_uncertainty": "9",
        "minimum_orbit_intersection": ".0336901",
        "jupiter_tisserand_invariant": "4.092",
        "epoch_osculation": "2455826.5",
        "eccentricity": ".4502792575645253",
        "semi_major_axis": "1.689481585319962",
        "inclination": "6.163002041636705",
        "ascending_node_longitude": "350.0726317835257",
        "orbital_period": "802.1001925917278",
        "perihelion_distance": ".9287430714131523",
        "perihelion_argument": "60.03149118666375",
        "aphelion_distance": "2.450220099226772",
        "perihelion_time": "2455869.757335865581",
        "mean_anomaly": "340.5851674698005",
        "mean_motion": ".4488217348967044",
        "equinox": "J2000",
        "orbit_class": {
            "orbit_class_type": "APO",
            "orbit_class_description": "Near-Earth asteroid orbits which cross the Earth’s orbit similar to that of 1862 Apollo",
            "orbit_class_range": "a (semi-major axis) > 1.0 AU; q (perihelion) < 1.017 AU"
        }
    },
    "is_sentry_object": false
}